MALLIGYONG-1            
1 58400U 23179A   24120.20772875  .00006376  00000+0  28010-3 0  9991
2 58400  97.4094   7.7945 0011175  78.6070 281.6421 15.22210001 24270
